#cP2019 10 29  0  0  0.00000000      96 ORBIT IGS14 HLM  IGS
## 2077 172800.00000000   900.00000000 58785 0.0000000000000
+   32   G01G02G03G04G05G06G07G08G09G10G11G12G13G14G15G16G17
+        G18G19G20G21G22G23G24G25G26G27G28G29G30G31G32  0  0
+          0  0  0  0  0  0  0  0  0  0  0  0  0  0  0  0  0
+          0  0  0  0  0  0  0  0  0  0  0  0  0  0  0  0  0
+          0  0  0  0  0  0  0  0  0  0  0  0  0  0  0  0  0
++         2  2  2  0  2  2  2  2  2  2  2  2  2  2  2  2  2
++         2  2  2  2  2  2  2  2  2  2  2  2  2  2  2  0  0
++         0  0  0  0  0  0  0  0  0  0  0  0  0  0  0  0  0
++         0  0  0  0  0  0  0  0  0  0  0  0  0  0  0  0  0
++         0  0  0  0  0  0  0  0  0  0  0  0  0  0  0  0  0
%c G  cc GPS ccc cccc cccc cccc cccc ccccc ccccc ccccc ccccc
%c cc cc ccc ccc cccc cccc cccc cccc ccccc ccccc ccccc ccccc
%f  1.2500000  1.025000000  0.00000000000  0.000000000000000
%f  0.0000000  0.000000000  0.00000000000  0.000000000000000
%i    0    0    0    0      0      0      0      0         0
%i    0    0    0    0      0      0      0      0         0
/* FINAL ORBIT COMBINATION FROM WEIGHTED AVERAGE OF:        
/* cod emr esa gfz grg jpl mit ngs sio                      
/* REFERENCED TO IGS TIME (IGST) AND TO WEIGHTED MEAN POLE: 
/* PCV:IGS14_2076 OL/AL:FES2004  NONE     Y  ORB:CMB CLK:CMB
*  2019 10 29  5 15  0.00000000
PG01  13303.500718 -21996.275677  -6177.391007   -178.884909  6  6     80       
PG02 -19715.673055  11059.686662 -13218.551545   -335.669476  4  4  3  79       
PG03   6581.093178 -14066.201297 -21597.180214    -28.748731  5  7  6  88       
PG04 -11326.261957 -23510.260770   4985.354224 999999.999999
PG05 -23877.502234   4297.810964  10898.879417     -2.830865  3  3  3  56       
PG06 -15654.005115  -3520.355168 -21127.012759   -106.143192  5  4  5  85       
PG07   -594.262541 -19215.479429  18400.288211   -137.160571  6  8  4  99       
PG08   8756.844498 -15284.577228  19843.315185    -11.533527  6  8  8  93       
PG09  -6819.829505 -25410.350677  -3657.337420    -69.228731  6  8  4  98       
PG10  21408.527521  11536.905827  11000.621677   -113.068779  4  7  4  88       
PG11   8056.602411 -25347.203646   2114.837031   -464.187700  6  6  3 100       
PG12 -12290.767804  11299.955812 -20828.836824    189.181047  6  6  5 101       
PG13 -13949.377889   5946.981838  21681.984589    -36.103643  5  5  2  35       
PG14  16118.340792   8940.636563 -18866.486992    -53.543789  4  3  3  86       
PG15  -7466.075483  16851.376183  18695.339585   -276.541486  5  4  4 113       
PG16  25026.995951    316.296742   9329.442161    -87.833710  7  6  5 102       
PG17 -14119.416215 -18579.484231 -12337.602433    152.898216  5  4  7  94       
PG18  17052.399583 -20133.254322   2037.713162     96.390459  5  8  4  56       
PG19 -15515.512522 -11984.187545 -18204.511902   -247.254054  1  5  6 114       
PG20  13236.377548  14166.284204  18128.285343    527.322330  5  6  4  80       
PG21   5101.226834  17405.396742  20257.477224    -94.780231  5  3  5  84       
PG22  14559.995926 -12285.001944 -18251.577504   -767.708364  5  8  7  90       
PG23   1064.247389 -22900.880117 -12729.251558   -158.736138  8  9  6  76       
PG24 -13656.743174  22321.499007  -3415.934069     -4.152725  6  9  3  80       
PG25   4155.114634  15658.620956 -21306.081200    -16.372135     6  3  92       
PG26  26303.478265   4360.899751   -600.376370     72.121905  3  4  4 107       
PG27  14767.506515  -2388.972081  21853.289683   -102.658910  5  5  8  88       
PG28 -20445.477125 -13283.229723  10998.979412    757.272307  6  8  5  91       
PG29   3828.420674  25760.036494  -5180.185098     58.674539  6 10  4  87       
PG30 -10565.638212 -11638.326214  21434.707281    -71.885921  7  6  5  95       
PG31  17465.340963   1581.243541 -20092.400238      0.476347  5  5  2  59       
PG32  15783.539378  17395.705081 -12460.203960    107.205522  4  7  5  88       
*  2019 10 29  5 30  0.00000000
PG01  13806.206330 -22267.142538  -3338.378503   -178.896557  5  7     77       
PG02 -18916.035866   9501.538998 -15342.211085   -335.676389  4  4  3  90       
PG03   8971.681523 -13660.622113 -20978.569397    -28.753459  6  7  5  96       
PG04 -11227.777482 -23980.846393   2170.563590 999999.999999
PG05 -24958.313321   3926.080735   8373.245063     -2.831478  3  4  3  75       
PG06 -14171.186397  -5480.342244 -21743.570958   -106.154428  5  5  4  62       
PG07    788.962821 -20639.687717  16706.652177   -137.167795  6  8  4  99       
PG08   9733.846845 -13170.594602  20897.031105    -11.534946  5  7  8  90       
PG09  -6350.312836 -24986.484345  -6419.266314    -69.237724  6  8  4  88       
PG10  20018.062852  11530.171962  13363.743592   -113.082447  4  7  4  87       
PG11   8322.517240 -24828.228235   4813.839152   -464.177760  6  5  2 101       
PG12 -14494.568196  10737.640771 -19650.103482    189.177543  6  6  5  87       
PG13 -14593.066731   3519.621259  21793.595371    -36.101610  5  5  2  82       
PG14  16614.282683  11010.967422 -17320.549657    -53.541754  3  3  4  87       
PG15  -8660.025119  14899.722039  19822.829303   -276.539215  5  4  4 104       
PG16  25891.790418    681.687790   6655.122121    -87.837004  7  6  4 101       
PG17 -14381.615020 -19885.166869  -9837.247954    152.904461  5  5  7  92       
PG18  17018.307823 -19604.564051   4853.861608     96.392809  5  8  3   4       
PG19 -15933.012556 -13865.415867 -16385.984056   -247.249246  1  5  7 107       
PG20  11061.819516  14278.387851  19425.984256    527.322448  5  7  4  63       
PG21   3825.456664  19066.251545  18967.675331    -94.774619  5  4  5  74       
PG22  16592.882408 -11944.913930 -16685.300330   -767.710806  5  8  6  95       
PG23   1951.403161 -21484.163140 -14890.793828   -158.734093  8  8  6  80       
PG24 -14063.010538  22298.655408   -598.196055     -4.151869  6  9  3  96       
PG25   1757.914474  15337.044906 -21848.264206    -16.372715     6  3  82       
PG26  26046.921550   4604.974861  -3409.178874     72.129560  3  5  4 106       
PG27  15671.510248    -69.297614  21378.173927   -102.669771  4  5  7  89       
PG28 -19131.514750 -13132.605996  13422.242335    757.271166  5  8  6  81       
PG29   3431.416819  25103.866858  -7955.625519     58.665435  6 10  4  67       
PG30  -8949.938372 -13460.154165  21082.861459    -71.893432  7  7  6  92       
PG31  16016.712138   3418.752760 -21009.132302      0.474058  5  5  2  96       
PG32  16066.271413  18675.405440 -10032.192805    107.216837  4  7  5  89       
*  2019 10 29  5 45  0.00000000
PG01  14106.624415 -22296.382484   -440.957681   -178.908232  5  7     60       
PG02 -18076.538472   7704.932512 -17189.025332   -335.683255  5  4  3  72       
PG03  11291.383573 -13388.924780 -20000.326215    -28.758218  6  7  4  92       
PG04 -11027.069571 -24161.369949   -681.552110 999999.999999
PG05 -25763.166704   3627.936265   5704.392659     -2.831456  2  4  3  76       
PG06 -12769.675368  -7558.695319 -21984.561296   -106.165627  5  5  3  95       
PG07   1981.149772 -21966.539125  14725.718918   -137.175145  6  8  3  97       
PG08  10864.825030 -11024.641133  21590.761523    -11.535278  5  6  8  86       
PG09  -5726.572358 -24311.768476  -9070.810910    -69.246725  6  8  5  92       
PG10  18376.318508  11576.489459  15500.156899   -113.096048  4  6  4  88       
PG11   8568.723323 -24024.992202   7430.539751   -464.167744  6  5  2  98       
PG12 -16578.527568  10320.704520 -18137.555740    189.173798  6  5  5  84       
PG13 -15361.373563   1138.896412  21526.092545    -36.097987  5  4  3 103       
PG14  17148.524746  12867.946270 -15471.298028    -53.539974  2  3  4  85       
PG15  -9995.841764  12913.043608  20597.699229   -276.536587  4  3  4  81       
PG16  26472.048562    943.543829   3868.548369    -87.840398  7  6  3  94       
PG17 -14606.745884 -20897.019504  -7165.215728    152.910579  5  6  7  71       
PG18  16846.560709 -18803.121022   7584.997880     96.395116  6  8  3   5       
PG19 -16381.846570 -15515.008197 -14290.878371   -247.244834  2  5  7  91       
PG20   8765.394940  14498.802261  20388.094154    527.322521  5  7  4  53       
PG21   2718.365537  20658.639983  17372.747203    -94.769472  5  4  5  68       
PG22  18444.036313 -11701.666202 -14826.292351   -767.713423  5  7  6  84       
PG23   3009.029840 -19902.641032 -16785.777572   -158.732249  8  8  6  73       
PG24 -14301.855620  22021.508549   2230.042836     -4.151999  5  8  3  87       
PG25   -695.324971  15141.648671 -22022.511706    -16.373278     6  3  96       
PG26  25490.793526   4843.886078  -6160.020279     72.137221  4  5  4 106       
PG27  16668.100314   2126.389507  20532.996642   -102.680623  4  4  6  76       
PG28 -17561.084855 -13007.976062  15620.865618    757.269463  5  9  6  84       
PG29   2886.490358  24184.854081 -10594.095179     58.656532  6 10  4  78       
PG30  -7460.131169 -15312.253166  20368.495290    -71.900844  8  8  5  93       
PG31  14614.464165   5399.928100 -21567.520452      0.471599  6  5     92       
PG32  16292.730901  19681.609339  -7432.278034    107.228178  3  7  5  86       
EOF
